SL-14 R/B               
1 20262U 89080C   25247.11895659  .00000404  00000+0  12261-3 0  9993
2 20262  82.5924 292.9953 1229591 251.2111  95.1904 12.50336825636834
DELTA 1 R/B             
1 20323U 89089B   25247.16621010  .00000606  00000+0  15922-3 0  9994
2 20323  97.0913 119.1165 0069146 353.2088   6.8166 14.50452866868695
ARIANE 40 R/B           
1 20443U 90005H   25247.14967646  .00000533  00000+0  18390-3 0  9994
2 20443  98.3390 308.0681 0010988  51.1256 309.0912 14.39688500865961
DELTA 2 R/B(1)          
1 20453U 90008B   25247.23119540  .00033538  00000+0  67826-3 0  9999
2 20453  35.6088 298.9604 0126969 353.8763   6.0413 15.37145602897273
COSMOS 2058             
1 20465U 90010A   25247.21900990  .00005708  00000+0  35560-3 0  9998
2 20465  82.4730 230.8073 0007952 244.6542 115.3864 15.09372538914090
SL-14 R/B               
1 20466U 90010B   25247.25024999  .00000743  00000+0  87606-4 0  9992
2 20466  82.4989  82.4634 0019559 190.2192 169.8629 14.83323466900842
SL-14 R/B               
1 20511U 90018B   25247.15649911  .00000810  00000+0  99199-4 0  9992
2 20511  82.5213  37.4181 0016158 350.8752   9.2166 14.81907098894953
HST                     
1 20580U 90037B   25247.25993454  .00008821  00000+0  32330-3 0  9997
2 20580  28.4674 228.6226 0002144 222.1583 137.8847 15.26174491744777
SL-16 R/B               
1 20625U 90046B   25247.20997911  .00000097  00000+0  74568-4 0  9991
2 20625  71.0010 329.5435 0015957 233.1909 126.7750 14.14973085822014
COSMOS 2084             
1 20663U 90055A   25247.27199416  .00003805  00000+0  28093-3 0  9995
2 20663  62.7888 250.6735 0048359 162.9618 197.3119 15.04110087908261
SL-6 R/B(2)             
1 20666U 90055D   25247.21672689  .00003640  00000+0  28782-3 0  9992
2 20666  62.7841 167.3849 0014876 220.6063 139.3927 15.02357635910161
SL-8 R/B                
1 20775U 90078B   25247.22219360  .00012463  00000+0  40941-3 0  9996
2 20775  82.9052  57.9705 0392132 277.6891  77.9970 14.80555781781629
SL-8 R/B                
1 21088U 91006B   25247.23715699  .00000059  00000+0  43761-4 0  9995
2 21088  82.9432 308.7546 0022211 193.9826 225.3931 13.77470222738400
OKEAN-3                 
1 21397U 91039A   25247.19378821  .00004251  00000+0  31181-3 0  9991
2 21397  82.5202 157.3232 0012866 242.0161 117.9764 15.03208872837004
COSMOS 2151             
1 21422U 91042A   25247.25456304  .00003365  00000+0  27462-3 0  9996
2 21422  82.4937 263.3315 0011655 337.1335  22.9368 14.99104078835258
SL-14 R/B               
1 21423U 91042B   25246.90085270  .00000871  00000+0  10757-3 0  9996
2 21423  82.4932  35.3231 0018179 131.7859 228.4912 14.81605597825413
ERS-1                   
1 21574U 91050A   25247.25710245  .00000634  00000+0  21788-3 0  9991
2 21574  98.7945 255.7886 0032772  37.0340 323.3100 14.39250770788915
ARIANE 40 R/B           
1 21610U 91050F   25247.12690229  .00000604  00000+0  19418-3 0  9991
2 21610  98.2324 301.0715 0001885 283.4748  76.6232 14.42692169792092
INTERCOSMOS 25          
1 21819U 91086A   25247.21108466  .00004492  00000+0  88270-3 0  9999
2 21819  82.5988  62.6933 1489704 158.7505 208.2780 12.11260631474102
SL-8 R/B                
1 21876U 92008B   25247.22343743  .00000046  00000+0  31658-4 0  9997
2 21876  82.9256  46.4444 0033502 296.4906 236.9992 13.75938603683779
SL-8 R/B                
1 21938U 92020B   25247.18587812  .00000046  00000+0  31147-4 0  9995
2 21938  82.9286 292.2723 0030477  98.3072 321.4035 13.75519647675494
USA 81                  
1 21949U 92023A   25247.27236190  .00000334  00000+0  11643-3 0  9998
2 21949  85.0041 238.9354 0001213  89.1449 270.9882 14.32268985 68100
COSMOS 2219             
1 22219U 92076A   25247.19374123  .00000396  00000+0  23276-3 0  9990
2 22219  71.0609  47.9151 0016555 128.9245 231.3356 14.14043918692017
SL-16 R/B               
1 22220U 92076B   25247.23035914 -.00000011  00000+0  18391-4 0  9997
2 22220  70.9988 221.1343 0012335   8.6082   3.1342 14.16818797695426
COSMOS 2221             
1 22236U 92080A   25247.12023896  .00003211  00000+0  28967-3 0  9996
2 22236  82.5021  97.6238 0016100  98.3235 261.9812 14.95148466752908
SL-16 R/B               
1 22285U 92093B   25247.16777979  .00000363  00000+0  21060-3 0  9998
2 22285  71.0226  35.8123 0006077 244.6678 115.3816 14.15407465686763
COSMOS 2228             
1 22286U 92094A   25247.25528838  .00003688  00000+0  32551-3 0  9998
2 22286  82.5156  55.6559 0017714 205.7831 154.2510 14.96022182748170
SL-16 R/B               
1 22566U 93016B   25247.18959820  .00000181  00000+0  11726-3 0  9991
2 22566  71.0049 246.8764 0012362 251.2722 108.7060 14.15264120675787
COSMOS 2242             
1 22626U 93024A   25247.09398885  .00003454  00000+0  30935-3 0  9994
2 22626  82.5160  85.0275 0015825 208.6331 151.4023 14.95455389752499
SL-16 R/B               
1 22803U 93059B   25247.13992857  .00000010  00000+0  28640-4 0  9999
2 22803  70.9905  44.5101 0015553 140.2772 219.9494 14.17187573653101
ARIANE 40 R/B           
1 22830U 93061H   25247.17199364  .00000420  00000+0  17008-3 0  9998
2 22830  98.5204 314.4524 0011820 114.5827 245.6591 14.32703696667392
COSMOS 2278             
1 23087U 94023A   25247.16595917 -.00000135  00000+0 -45683-4 0  9991
2 23087  71.0525 205.3224 0010832 304.7423  55.2679 14.14314645618436
SL-16 R/B               
1 23088U 94023B   25247.01556540 -.00000057  00000+0 -46493-5 0  9999
2 23088  70.9980 102.9113 0005061 240.5739 119.4879 14.14975403619682
SL-16 R/B               
1 23343U 94074B   25247.10071903  .00000877  00000+0  12505-3 0  9997
2 23343  97.7343 280.2857 0008040 105.9683 313.7138 14.79122921659662
SL-16 R/B               
1 23405U 94077B   25247.14067767  .00000310  00000+0  18295-3 0  9990
2 23405  70.9844  24.9408 0000462  77.2242 282.8933 14.15527803589835
ARIANE 40+ R/B          
1 23561U 95021B   25247.19994957  .00000530  00000+0  18364-3 0  9999
2 23561  98.4773 315.9334 0006372 350.6607  20.5531 14.39584196592417
SL-16 R/B               
1 23705U 95058B   25247.20907885  .00000111  00000+0  81288-4 0  9996
2 23705  71.0209 211.7568 0011162  34.8293 325.3558 14.15463033541469
SL-16 R/B               
1 24298U 96051B   25247.19584842 -.00000095  00000+0 -24931-4 0  9995
2 24298  70.7617 209.9626 0013448  43.1636 317.0535 14.12396106495311
ORBVIEW 2 (SEASTAR)     
1 24883U 97037A   25247.02279265  .00000543  00000+0  20580-3 0  9993
2 24883  98.8371  41.6427 0001312 233.6683 126.4380 14.35303880481692
SL-16 R/B               
1 25400U 98043G   25247.09314899  .00000135  00000+0  75367-4 0  9998
2 25400  98.7931 194.4513 0009543 189.7578 170.3418 14.25988688412395
SL-16 R/B               
1 25407U 98045B   25247.17012956  .00000238  00000+0  14424-3 0  9995
2 25407  71.0097 213.8075 0009344 300.9380  59.0825 14.16150584400696
ISS (ZARYA)             
1 25544U 98067A   25247.10182809  .00011777  00000+0  21333-3 0  9996
2 25544  51.6327 275.9345 0004179 299.5263  60.5309 15.50088696528307
CZ-4B R/B               
1 25732U 99025C   25247.12287477  .00000126  00000+0  81467-4 0  9990
2 25732  98.6931 290.5414 0037552 159.8494 214.3830 14.18208656361725
OKEAN-O                 
1 25860U 99039A   25247.13680162  .00001296  00000+0  17855-3 0  9994
2 25860  97.9760 303.6258 0001100 114.9592 245.1734 14.79917773406798
SL-16 R/B               
1 25861U 99039B   25247.16143923  .00001099  00000+0  14731-3 0  9998
2 25861  98.0285 301.2264 0015795 138.8161 221.4247 14.81378275409246
DELTA 2 R/B             
1 25876U 99041E   25246.92918725  .00003045  00000+0  52823-3 0  9997
2 25876  51.7631 326.7267 0506090 157.4754 204.9273 14.11075906336653
HELIOS 1B               
1 25977U 99064A   25247.21242341  .00002447  00000+0  28171-3 0  9995
2 25977  98.1827 138.9497 0001060  38.7543 321.3748 14.86711860657542
TERRA                   
1 25994U 99068A   25247.21897994  .00000875  00000+0  18834-3 0  9996
2 25994  97.9910 302.4698 0003449  68.6115  23.7707 14.60785986367854
SL-16 R/B               
1 26070U 00006B   25247.13730293  .00000322  00000+0  18800-3 0  9995
2 26070  71.0024 130.0820 0014494 107.7726 252.4980 14.15787256322156
TITAN 4B R/B            
1 26474U 00047B   25247.26676169  .00005546  00000+0  36188-3 0  9995
2 26474  67.9891 203.9800 0047793 252.4844 107.1078 15.07678363364795
ENVISAT                 
1 27386U 02009A   25247.11376103  .00000254  00000+0  96344-4 0  9999
2 27386  98.3407 200.4777 0001164  87.9941 281.9405 14.38944178232348
IDEFIX & ARIANE 42P R/B 
1 27422U 02021B   25247.07807445  .00000529  00000+0  21832-3 0  9991
2 27422  98.5626 183.1533 0012419  22.3071 337.8650 14.30840924217334
AQUA                    
1 27424U 02022A   25247.23059778  .00001818  00000+0  37675-3 0  9994
2 27424  98.3848 206.6108 0001796 103.5628   8.6267 14.61453702241494
CZ-4B R/B               
1 27432U 02024C   25247.11314843  .00000107  00000+0  78239-4 0  9991
2 27432  98.9164 296.1449 0050006 191.5912 188.2944 14.14499605202868
MIDORI II (ADEOS-II)    
1 27597U 02056A   25247.15940731  .00000515  00000+0  22084-3 0  9992
2 27597  98.7444 199.6927 0001386 127.9448 232.1859 14.29101281183656
H-2A R/B                
1 27601U 02056E   25247.14488257  .00000715  00000+0  26591-3 0  9996
2 27601  98.2877 209.9603 0070510 358.6759  11.2385 14.33565348187383
CZ-4B R/B               
1 28059U 03049C   25246.93853821  .00000825  00000+0  20120-3 0  9990
2 28059  98.6676 229.7813 0049605  81.8520 278.8299 14.54751496159442
CZ-2C R/B               
1 28222U 04012C   25247.07893155  .00030873  00000+0  59382-3 0  9991
2 28222  97.7595 292.0369 0019846 270.5052  89.3923 15.47652030175279
SL-16 R/B               
1 28353U 04021B   25247.19781530 -.00000107  00000+0 -30755-4 0  9995
2 28353  70.9991 263.8521 0007113 306.3995  53.6470 14.14562881 96462
